NOAA 16 DEB             
1 42424U 00055TU  24124.71052525  .00019901  00000+0  52833-2 0  9998
2 42424  98.9751 302.2492 0021990 214.4188 145.5580 14.48516416418605
